[{"OBJECT_NAME":"SCD 1","OBJECT_ID":"1993-009B","EPOCH":"2026-03-03T05:26:14.781408","MEAN_MOTION":14.46063084,"ECCENTRICITY":0.00422169,"INCLINATION":24.9681,"RA_OF_ASC_NODE":141.7924,"ARG_OF_PERICENTER":96.489,"MEAN_ANOMALY":295.8397,"EPHEMERIS_TYPE":0,"CLASSIFICATION_TYPE":"U","NORAD_CAT_ID":22490,"ELEMENT_SET_NO":999,"REV_AT_EPOCH":74576,"BSTAR":9.7095329e-5,"MEAN_MOTION_DOT":5.41e-6,"MEAN_MOTION_DDOT":0},{"OBJECT_NAME":"TECHSAT 1B (GO-32)","OBJECT_ID":"1998-043D","EPOCH":"2026-03-03T13:24:22.485312","MEAN_MOTION":14.24404107,"ECCENTRICITY":0.0001875,"INCLINATION":99.002,"RA_OF_ASC_NODE":52.6812,"ARG_OF_PERICENTER":129.2562,"MEAN_ANOMALY":230.8782,"EPHEMERIS_TYPE":0,"CLASSIFICATION_TYPE":"U","NORAD_CAT_ID":25397,"ELEMENT_SET_NO":999,"REV_AT_EPOCH":43629,"BSTAR":7.0908e-5,"MEAN_MOTION_DOT":1.17e-6,"MEAN_MOTION_DDOT":0},{"OBJECT_NAME":"SCD 2","OBJECT_ID":"1998-060A","EPOCH":"2026-03-03T04:52:29.657856","MEAN_MOTION":14.45478572,"ECCENTRICITY":0.00169862,"INCLINATION":24.9967,"RA_OF_ASC_NODE":5.7412,"ARG_OF_PERICENTER":83.4174,"MEAN_ANOMALY":48.6027,"EPHEMERIS_TYPE":0,"CLASSIFICATION_TYPE":"U","NORAD_CAT_ID":25504,"ELEMENT_SET_NO":999,"REV_AT_EPOCH":44497,"BSTAR":9.5904307e-5,"MEAN_MOTION_DOT":5.26e-6,"MEAN_MOTION_DDOT":0},{"OBJECT_NAME":"DLR-TUBSAT","OBJECT_ID":"1999-029B","EPOCH":"2026-03-03T13:05:47.162400","MEAN_MOTION":14.52394685,"ECCENTRICITY":0.00133738,"INCLINATION":98.6657,"RA_OF_ASC_NODE":54.5974,"ARG_OF_PERICENTER":314.8951,"MEAN_ANOMALY":45.1157,"EPHEMERIS_TYPE":0,"CLASSIFICATION_TYPE":"U","NORAD_CAT_ID":25757,"ELEMENT_SET_NO":999,"REV_AT_EPOCH":41791,"BSTAR":5.9480702e-5,"MEAN_MOTION_DOT":1.94e-6,"MEAN_MOTION_DDOT":0},{"OBJECT_NAME":"TERRA","OBJECT_ID":"1999-068A","EPOCH":"2026-03-03T18:11:52.490688","MEAN_MOTION":14.61007359,"ECCENTRICITY":0.0002299,"INCLINATION":97.9606,"RA_OF_ASC_NODE":116.4193,"ARG_OF_PERICENTER":165.972,"MEAN_ANOMALY":262.2336,"EPHEMERIS_TYPE":0,"CLASSIFICATION_TYPE":"U","NORAD_CAT_ID":25994,"ELEMENT_SET_NO":999,"REV_AT_EPOCH":39421,"BSTAR":0.00012797,"MEAN_MOTION_DOT":5.83e-6,"MEAN_MOTION_DDOT":0},{"OBJECT_NAME":"MAROC-TUBSAT","OBJECT_ID":"2001-056D","EPOCH":"2026-03-03T11:50:54.045312","MEAN_MOTION":13.70257669,"ECCENTRICITY":0.00204358,"INCLINATION":99.8001,"RA_OF_ASC_NODE":237.3792,"ARG_OF_PERICENTER":54.982,"MEAN_ANOMALY":10.2604,"EPHEMERIS_TYPE":0,"CLASSIFICATION_TYPE":"U","NORAD_CAT_ID":27004,"ELEMENT_SET_NO":999,"REV_AT_EPOCH":21171,"BSTAR":3.0085215e-5,"MEAN_MOTION_DOT":-2.0e-7,"MEAN_MOTION_DDOT":0},{"OBJECT_NAME":"AQUA","OBJECT_ID":"2002-022A","EPOCH":"2026-03-03T20:40:01.104096","MEAN_MOTION":14.61960134,"ECCENTRICITY":6.51e-5,"INCLINATION":98.4164,"RA_OF_ASC_NODE":30.1204,"ARG_OF_PERICENTER":58.3918,"MEAN_ANOMALY":331.584,"EPHEMERIS_TYPE":0,"CLASSIFICATION_TYPE":"U","NORAD_CAT_ID":27424,"ELEMENT_SET_NO":999,"REV_AT_EPOCH":26788,"BSTAR":0.00029557,"MEAN_MOTION_DOT":1.431e-5,"MEAN_MOTION_DDOT":0},{"OBJECT_NAME":"IRS-P6 (RESOURCESAT-1)","OBJECT_ID":"2003-046A","EPOCH":"2026-03-03T19:47:28.185792","MEAN_MOTION":14.36112538,"ECCENTRICITY":0.0063093,"INCLINATION":98.2058,"RA_OF_ASC_NODE":104.4316,"ARG_OF_PERICENTER":299.0404,"MEAN_ANOMALY":170.9672,"EPHEMERIS_TYPE":0,"CLASSIFICATION_TYPE":"U","NORAD_CAT_ID":28051,"ELEMENT_SET_NO":999,"REV_AT_EPOCH":16540,"BSTAR":8.1178e-5,"MEAN_MOTION_DOT":2.0e-6,"MEAN_MOTION_DDOT":0},{"OBJECT_NAME":"SHIYAN-1 (SY-1)","OBJECT_ID":"2004-012A","EPOCH":"2026-03-03T17:21:30.106368","MEAN_MOTION":15.30819948,"ECCENTRICITY":0.0006341,"INCLINATION":97.8784,"RA_OF_ASC_NODE":134.1405,"ARG_OF_PERICENTER":43.2843,"MEAN_ANOMALY":316.8894,"EPHEMERIS_TYPE":0,"CLASSIFICATION_TYPE":"U","NORAD_CAT_ID":28220,"ELEMENT_SET_NO":999,"REV_AT_EPOCH":19494,"BSTAR":0.00058733,"MEAN_MOTION_DOT":0.00017441,"MEAN_MOTION_DDOT":0},{"OBJECT_NAME":"AURA","OBJECT_ID":"2004-026A","EPOCH":"2026-03-03T19:23:06.806688","MEAN_MOTION":14.61132287,"ECCENTRICITY":0.0001021,"INCLINATION":98.3301,"RA_OF_ASC_NODE":18.4728,"ARG_OF_PERICENTER":78.2308,"MEAN_ANOMALY":281.9007,"EPHEMERIS_TYPE":0,"CLASSIFICATION_TYPE":"U","NORAD_CAT_ID":28376,"ELEMENT_SET_NO":999,"REV_AT_EPOCH":15082,"BSTAR":0.00029121,"MEAN_MOTION_DOT":1.384e-5,"MEAN_MOTION_DDOT":0},{"OBJECT_NAME":"IRS-P5 (CARTOSAT-1)","OBJECT_ID":"2005-017A","EPOCH":"2026-03-03T15:22:33.500064","MEAN_MOTION":14.90740297,"ECCENTRICITY":0.000248,"INCLINATION":97.5422,"RA_OF_ASC_NODE":90.4575,"ARG_OF_PERICENTER":75.784,"MEAN_ANOMALY":284.3655,"EPHEMERIS_TYPE":0,"CLASSIFICATION_TYPE":"U","NORAD_CAT_ID":28649,"ELEMENT_SET_NO":999,"REV_AT_EPOCH":12809,"BSTAR":0.00022614,"MEAN_MOTION_DOT":2.169e-5,"MEAN_MOTION_DDOT":0},{"OBJECT_NAME":"SINAH 1","OBJECT_ID":"2005-043D","EPOCH":"2026-03-03T19:24:40.281120","MEAN_MOTION":14.64065282,"ECCENTRICITY":0.0013398,"INCLINATION":98.2674,"RA_OF_ASC_NODE":196.6174,"ARG_OF_PERICENTER":244.0908,"MEAN_ANOMALY":115.8913,"EPHEMERIS_TYPE":0,"CLASSIFICATION_TYPE":"U","NORAD_CAT_ID":28893,"ELEMENT_SET_NO":999,"REV_AT_EPOCH":8510,"BSTAR":0.00013581,"MEAN_MOTION_DOT":6.64e-6,"MEAN_MOTION_DDOT":0},{"OBJECT_NAME":"RESURS-DK 1","OBJECT_ID":"2006-021A","EPOCH":"2026-03-03T18:46:56.005824","MEAN_MOTION":15.12696479,"ECCENTRICITY":0.0002477,"INCLINATION":69.9303,"RA_OF_ASC_NODE":252.3043,"ARG_OF_PERICENTER":165.642,"MEAN_ANOMALY":194.4817,"EPHEMERIS_TYPE":0,"CLASSIFICATION_TYPE":"U","NORAD_CAT_ID":29228,"ELEMENT_SET_NO":999,"REV_AT_EPOCH":8663,"BSTAR":0.00020627,"MEAN_MOTION_DOT":3.513e-5,"MEAN_MOTION_DDOT":0},{"OBJECT_NAME":"ARIRANG-2 (KOMPSAT-2)","OBJECT_ID":"2006-031A","EPOCH":"2026-03-03T19:45:00.368352","MEAN_MOTION":14.64582639,"ECCENTRICITY":0.0015565,"INCLINATION":97.8293,"RA_OF_ASC_NODE":252.3595,"ARG_OF_PERICENTER":51.0928,"MEAN_ANOMALY":78.7516,"EPHEMERIS_TYPE":0,"CLASSIFICATION_TYPE":"U","NORAD_CAT_ID":29268,"ELEMENT_SET_NO":999,"REV_AT_EPOCH":4605,"BSTAR":0.00011667,"MEAN_MOTION_DOT":5.75e-6,"MEAN_MOTION_DDOT":0},{"OBJECT_NAME":"LAPAN-TUBSAT","OBJECT_ID":"2007-001A","EPOCH":"2026-03-03T20:47:28.724352","MEAN_MOTION":14.8581789,"ECCENTRICITY":0.0012398,"INCLINATION":98.132,"RA_OF_ASC_NODE":59.7368,"ARG_OF_PERICENTER":162.5242,"MEAN_ANOMALY":197.6402,"EPHEMERIS_TYPE":0,"CLASSIFICATION_TYPE":"U","NORAD_CAT_ID":29709,"ELEMENT_SET_NO":999,"REV_AT_EPOCH":3551,"BSTAR":8.3224e-5,"MEAN_MOTION_DOT":6.67e-6,"MEAN_MOTION_DDOT":0},{"OBJECT_NAME":"HAIYANG-1B","OBJECT_ID":"2007-010A","EPOCH":"2026-03-03T13:32:47.665248","MEAN_MOTION":14.30997121,"ECCENTRICITY":0.0014004,"INCLINATION":98.3419,"RA_OF_ASC_NODE":48.5505,"ARG_OF_PERICENTER":150.0075,"MEAN_ANOMALY":210.1914,"EPHEMERIS_TYPE":0,"CLASSIFICATION_TYPE":"U","NORAD_CAT_ID":31113,"ELEMENT_SET_NO":999,"REV_AT_EPOCH":98552,"BSTAR":7.1738e-5,"MEAN_MOTION_DOT":1.47e-6,"MEAN_MOTION_DDOT":0},{"OBJECT_NAME":"COSMO-SKYMED 1","OBJECT_ID":"2007-023A","EPOCH":"2026-03-03T20:20:10.138848","MEAN_MOTION":14.96479045,"ECCENTRICITY":8.17e-5,"INCLINATION":97.8861,"RA_OF_ASC_NODE":253.8331,"ARG_OF_PERICENTER":89.5652,"MEAN_ANOMALY":270.5663,"EPHEMERIS_TYPE":0,"CLASSIFICATION_TYPE":"U","NORAD_CAT_ID":31598,"ELEMENT_SET_NO":999,"REV_AT_EPOCH":1403,"BSTAR":0.00039946,"MEAN_MOTION_DOT":4.477e-5,"MEAN_MOTION_DDOT":0}]
