SCD 1                   
1 22490U 93009B   26062.22655997  .00000541  00000+0  97095-4 0  9992
2 22490  24.9681 141.7924 0042216  96.4890 295.8397 14.46063084745766
TECHSAT 1B (GO-32)      
1 25397U 98043D   26062.55859358  .00000117  00000+0  70908-4 0  9990
2 25397  99.0020  52.6812 0001875 129.2562 230.8782 14.24404107436291
SCD 2                   
1 25504U 98060A   26062.20312104  .00000526  00000+0  95904-4 0  9991
2 25504  24.9967   5.7412 0016986  83.4174  48.6027 14.45478572444973
DLR-TUBSAT              
1 25757U 99029B   26062.54568475  .00000194  00000+0  59481-4 0  9999
2 25757  98.6657  54.5974 0013373 314.8951  45.1157 14.52394685417913
TERRA                   
1 25994U 99068A   26062.75824642  .00000583  00000+0  12797-3 0  9999
2 25994  97.9606 116.4193 0002299 165.9720 262.2336 14.61007359394214
MAROC-TUBSAT            
1 27004U 01056D   26062.49368108 -.00000020  00000+0  30085-4 0  9992
2 27004  99.8001 237.3792 0020435  54.9820  10.2604 13.70257669211718
AQUA                    
1 27424U 02022A   26062.86112389  .00001431  00000+0  29557-3 0  9998
2 27424  98.4164  30.1204 0000651  58.3918 331.5840 14.61960134267889
IRS-P6 (RESOURCESAT-1)  
1 28051U 03046A   26062.82463178  .00000200  00000+0  81178-4 0  9994
2 28051  98.2058 104.4316 0063093 299.0404 170.9672 14.36112538165400
SHIYAN-1 (SY-1)         
1 28220U 04012A   26062.72326512  .00017441  00000+0  58733-3 0  9990
2 28220  97.8784 134.1405 0006341  43.2843 316.8894 15.30819948194949
AURA                    
1 28376U 04026A   26062.80771767  .00001384  00000+0  29121-3 0  9990
2 28376  98.3301  18.4728 0001021  78.2308 281.9007 14.61132287150822
IRS-P5 (CARTOSAT-1)     
1 28649U 05017A   26062.64066551  .00002169  00000+0  22614-3 0  9996
2 28649  97.5422  90.4575 0002480  75.7840 284.3655 14.90740297128091
SINAH 1                 
1 28893U 05043D   26062.80879955  .00000664  00000+0  13581-3 0  9995
2 28893  98.2674 196.6174 0013398 244.0908 115.8913 14.64065282 85103
RESURS-DK 1             
1 29228U 06021A   26062.78259266  .00003513  00000+0  20627-3 0  9994
2 29228  69.9303 252.3043 0002477 165.6420 194.4817 15.12696479 86635
ARIRANG-2 (KOMPSAT-2)   
1 29268U 06031A   26062.82292093  .00000575  00000+0  11667-3 0  9998
2 29268  97.8293 252.3595 0015565  51.0928  78.7516 14.64582639 46052
LAPAN-TUBSAT            
1 29709U 07001A   26062.86630468  .00000667  00000+0  83224-4 0  9993
2 29709  98.1320  59.7368 0012398 162.5242 197.6402 14.85817890 35519
HAIYANG-1B              
1 31113U 07010A   26062.56444057  .00000147  00000+0  71738-4 0  9999
2 31113  98.3419  48.5505 0014004 150.0075 210.1914 14.30997121985523
COSMO-SKYMED 1          
1 31598U 07023A   26062.84733957  .00004477  00000+0  39946-3 0  9995
2 31598  97.8861 253.8331 0000817  89.5652 270.5663 14.96479045 14039
